NORAD_CAT_ID,OBJECT_NAME,OBJECT_TYPE,EPOCH,MEAN_MOTION,ECCENTRICITY,INCLINATION,RA_OF_ASC_NODE,ARG_OF_PERICENTER,MEAN_ANOMALY,BSTAR,MEAN_MOTION_DOT,MEAN_MOTION_DDOT,TLE_LINE0,TLE_LINE1,TLE_LINE2,SEMIMAJOR_AXIS,PERIOD,APOGEE,PERIGEE,DECAYED
51893.0,STARLINK-3579,PAYLOAD,2023-12-13 12:47:31,15.08843755,0.0001468,53.219,67.4818,99.6102,260.5056,0.00014761,2.062e-05,0.0,0 STARLINK-3579,1 51893U 22022AT  23347.53299902  .00002062  00000-0  14761-3 0  9994,2 51893  53.2190  67.4818 0001468  99.6102 260.5056 15.08843755 99949,6917.869,95.437,540.749,538.718,0.0
51893.0,STARLINK-3579,PAYLOAD,2023-12-14 12:38:18,15.08842709,0.0001607,53.2184,63.0183,104.906,255.211,-2.0951e-05,-6.21e-06,0.0,0 STARLINK-3579,1 51893U 22022AT  23348.52659971 -.00000621  00000-0 -20951-4 0  9990,2 51893  53.2184  63.0183 0001607 104.9060 255.2110 15.08842709100096,6917.872,95.437,540.849,538.625,0.0
51893.0,STARLINK-3579,PAYLOAD,2023-12-14 20:35:14,15.08831252,0.0001598,53.2182,61.5325,73.6587,286.4581,-8.1407e-05,-1.583e-05,0.0,0 STARLINK-3579,1 51893U 22022AT  23348.85780622 -.00001583  00000-0 -81407-4 0  9995,2 51893  53.2182  61.5325 0001598  73.6587 286.4581 15.08831252100145,6917.907,95.438,540.878,538.667,0.0
51893.0,STARLINK-3579,PAYLOAD,2023-12-15 10:53:42,15.08838194,0.0001722,53.2179,58.854,66.4067,293.7106,5.7074e-05,6.2e-06,0.0,0 STARLINK-3579,1 51893U 22022AT  23349.45396475  .00000620  00000-0  57074-4 0  9993,2 51893  53.2179  58.8540 0001722  66.4067 293.7106 15.08838194100237,6917.886,95.438,540.942,538.56,0.0
51893.0,STARLINK-3579,PAYLOAD,2023-12-15 12:29:05,15.08840692,0.0001711,53.2182,58.555,70.1905,289.9272,9.2878e-05,1.19e-05,0.0,0 STARLINK-3579,1 51893U 22022AT  23349.52020338  .00001190  00000-0  92878-4 0  9997,2 51893  53.2182  58.5550 0001711  70.1905 289.9272 15.08840692100248,6917.878,95.438,540.927,538.56,0.0
51893.0,STARLINK-3579,PAYLOAD,2023-12-16 10:44:29,15.08840073,0.0001816,53.2178,54.3921,62.0744,298.0432,8.2167e-05,1.02e-05,0.0,0 STARLINK-3579,1 51893U 22022AT  23350.44756678  .00001020  00000-0  82167-4 0  9995,2 51893  53.2178  54.3921 0001816  62.0744 298.0432 15.08840073100383,6917.88,95.438,541.001,538.489,0.0
51893.0,STARLINK-3579,PAYLOAD,2023-12-17 10:35:16,15.088411,0.000158,53.2179,49.9393,75.28,284.8367,6.819e-05,7.97e-06,0.0,0 STARLINK-3579,1 51893U 22022AT  23351.44116772  .00000797  00000-0  68190-4 0  9991,2 51893  53.2179  49.9393 0001580  75.2800 284.8367 15.08841100100533,6917.877,95.437,540.835,538.649,0.0
51893.0,STARLINK-3579,PAYLOAD,2023-12-18 10:26:04,15.08829194,0.0001666,53.2177,45.4786,111.6518,248.4651,-4.9801e-05,-1.08e-05,0.0,0 STARLINK-3579,1 51893U 22022AT  23352.43477766 -.00001080  00000-0 -49801-4 0  9990,2 51893  53.2177  45.4786 0001666 111.6518 248.4651 15.08829194100681,6917.913,95.438,540.931,538.626,0.0
51893.0,STARLINK-3579,PAYLOAD,2023-12-19 10:16:50,15.08855414,0.0001442,53.218,41.0145,98.8741,261.2414,0.00034035,5.135e-05,0.0,0 STARLINK-3579,1 51893U 22022AT  23353.42836723  .00005135  00000-0  34035-3 0  9997,2 51893  53.2180  41.0145 0001442  98.8741 261.2414 15.08855414100833,6917.833,95.437,540.696,538.701,0.0
51893.0,STARLINK-3579,PAYLOAD,2023-12-20 10:07:38,15.08844648,0.0001531,53.2179,36.5553,95.5516,264.5651,0.00010866,1.442e-05,0.0,0 STARLINK-3579,1 51893U 22022AT  23354.42197274  .00001442  00000-0  10866-3 0  9992,2 51893  53.2179  36.5553 0001531  95.5516 264.5651 15.08844648100988,6917.866,95.437,540.79,538.672,0.0
51893.0,STARLINK-3579,PAYLOAD,2023-12-21 08:23:01,15.0885178,0.0001531,53.2177,32.3914,93.0416,267.0751,0.00012304,1.671e-05,0.0,0 STARLINK-3579,1 51893U 22022AT  23355.34932674  .00001671  00000-0  12304-3 0  9998,2 51893  53.2177  32.3914 0001531  93.0416 267.0751 15.08851780101124,6917.844,95.437,540.769,538.65,0.0
51893.0,STARLINK-3579,PAYLOAD,2023-12-22 09:49:12,15.088415,0.000161,53.2179,27.6363,85.2926,274.825,0.00010866,1.442e-05,0.0,0 STARLINK-3579,1 51893U 22022AT  23356.40917219  .00001442  00000-0  10866-3 0  9991,2 51893  53.2179  27.6363 0001610  85.2926 274.8250 15.08841500101284,6917.876,95.437,540.855,538.627,0.0
51893.0,STARLINK-3579,PAYLOAD,2023-12-23 11:15:23,15.08804111,0.0001602,53.2188,22.8742,86.3698,273.7478,-0.00062388,-0.00010194,0.0,0 STARLINK-3579,1 51893U 22022AT  23357.46902447 -.00010194  00000-0 -62388-3 0  9997,2 51893  53.2188  22.8742 0001602  86.3698 273.7478 15.08804111101446,6917.99,95.44,540.963,538.747,0.0
51893.0,STARLINK-3579,PAYLOAD,2023-12-24 01:33:52,15.0882495,0.0002322,53.2191,20.207,57.8713,302.2504,6.2602e-05,7.08e-06,0.0,0 STARLINK-3579,1 51893U 22022AT  23358.06519519  .00000708  00000-0  62602-4 0  9996,2 51893  53.2191  20.2070 0002322  57.8713 302.2504 15.08824950101538,6917.926,95.439,541.398,538.185,0.0
51893.0,STARLINK-3579,PAYLOAD,2023-12-24 07:55:25,15.08832031,0.0002449,53.2182,19.018,66.3501,293.7748,0.00021647,3.158e-05,0.0,0 STARLINK-3579,1 51893U 22022AT  23358.33015479  .00003158  00000-0  21647-3 0  9997,2 51893  53.2182  19.0180 0002449  66.3501 293.7748 15.08832031101573,6917.905,95.438,541.464,538.076,0.0
51893.0,STARLINK-3579,PAYLOAD,2023-12-25 01:24:39,15.08848798,0.0002329,53.2185,15.7426,82.5669,277.5588,0.00094882,0.00014848,0.0,0 STARLINK-3579,1 51893U 22022AT  23359.05879070  .00014848  00000-0  94882-3 0  9991,2 51893  53.2185  15.7426 0002329  82.5669 277.5588 15.08848798101685,6917.853,95.437,541.33,538.107,0.0
51893.0,STARLINK-3579,PAYLOAD,2023-12-25 07:46:11,15.08855369,0.000221,53.218,14.551,90.6509,269.4736,0.00073121,0.00011373,0.0,0 STARLINK-3579,1 51893U 22022AT  23359.32374709  .00011373  00000-0  73121-3 0  9993,2 51893  53.2180  14.5510 0002210  90.6509 269.4736 15.08855369101725,6917.833,95.437,541.227,538.17,0.0
51893.0,STARLINK-3579,PAYLOAD,2023-12-26 10:47:44,15.08856118,0.0002217,53.2184,9.4938,84.386,275.7385,0.00013237,1.82e-05,0.0,0 STARLINK-3579,1 51893U 22022AT  23360.44981726  .00001820  00000-0  13237-3 0  9999,2 51893  53.2184   9.4938 0002217  84.3860 275.7385 15.08856118101894,6917.831,95.437,541.23,538.162,0.0
51893.0,STARLINK-3579,PAYLOAD,2023-12-27 04:16:58,15.08843416,0.0002311,53.2178,6.2176,104.2175,255.9074,-9.4977e-05,-1.8e-05,0.0,0 STARLINK-3579,1 51893U 22022AT  23361.17845897 -.00001800  00000-0 -94977-4 0  9999,2 51893  53.2178   6.2176 0002311 104.2175 255.9074 15.08843416102008,6917.87,95.437,541.334,538.136,0.0
51893.0,STARLINK-3579,PAYLOAD,2023-12-27 07:27:44,15.08844325,0.0002053,53.2181,5.6226,97.4244,262.6981,-9.6345e-05,-1.821e-05,0.0,0 STARLINK-3579,1 51893U 22022AT  23361.31093700 -.00001821  00000-0 -96345-4 0  9997,2 51893  53.2181   5.6226 0002053  97.4244 262.6981 15.08844325102028,6917.867,95.437,541.152,538.312,0.0
51893.0,STARLINK-3579,PAYLOAD,2023-12-28 05:43:09,15.08841414,0.0002111,53.2191,1.4646,95.8814,264.2418,9.6267e-06,-1.35e-06,0.0,0 STARLINK-3579,1 51893U 22022AT  23362.23830363 -.00000135  00000-0  96267-5 0  9993,2 51893  53.2191   1.4646 0002111  95.8814 264.2418 15.08841414102163,6917.876,95.437,541.201,538.281,0.0
51893.0,STARLINK-3579,PAYLOAD,2023-12-29 08:44:42,15.08842835,0.0002143,53.2193,356.4099,95.1581,264.9656,0.00013139,1.804e-05,0.0,0 STARLINK-3579,1 51893U 22022AT  23363.36438239  .00001804  00000-0  13139-3 0  9992,2 51893  53.2193 356.4099 0002143  95.1581 264.9656 15.08842835102337,6917.872,95.437,541.219,538.254,0.0
51893.0,STARLINK-3579,PAYLOAD,2023-12-30 03:49:20,15.0883568,0.0002269,53.2201,352.8419,98.7882,261.3367,6.5657e-05,7.57e-06,0.0,0 STARLINK-3579,1 51893U 22022AT  23364.15926947  .00000757  00000-0  65657-4 0  9997,2 51893  53.2201 352.8419 0002269  98.7882 261.3367 15.08835680102458,6917.894,95.438,541.328,538.189,0.0
51893.0,STARLINK-3579,PAYLOAD,2023-12-30 08:35:29,15.08841276,0.0002087,53.2195,351.9497,92.8117,267.3114,0.00011468,1.537e-05,0.0,0 STARLINK-3579,1 51893U 22022AT  23364.35798603  .00001537  00000-0  11468-3 0  9992,2 51893  53.2195 351.9497 0002087  92.8117 267.3114 15.08841276102487,6917.876,95.437,541.185,538.298,0.0
51893.0,STARLINK-3579,PAYLOAD,2023-12-31 08:26:17,15.08845555,0.0002049,53.2193,347.4882,95.4418,264.6808,6.3581e-05,7.24e-06,0.0,0 STARLINK-3579,1 51893U 22022AT  23365.35158605  .00000724  00000-0  63581-4 0  9996,2 51893  53.2193 347.4882 0002049  95.4418 264.6808 15.08845555102635,6917.863,95.437,541.146,538.311,0.0
51893.0,STARLINK-3579,PAYLOAD,2024-01-01 08:17:03,15.08847381,0.0001991,53.219,343.026,102.9009,257.2206,0.00012324,1.674e-05,0.0,0 STARLINK-3579,1 51893U 22022AT  24001.34518215  .00001674  00000-0  12324-3 0  9993,2 51893  53.2190 343.0260 0001991 102.9009 257.2206 15.08847381102784,6917.858,95.437,541.1,538.345,0.0
51893.0,STARLINK-3579,PAYLOAD,2024-01-02 03:21:41,15.0883964,0.0002011,53.2187,339.4553,99.0147,261.1073,0.00013212,1.815e-05,0.0,0 STARLINK-3579,1 51893U 22022AT  24002.14006548  .00001815  00000-0  13212-3 0  9997,2 51893  53.2187 339.4553 0002011  99.0147 261.1073 15.08839640102906,6917.881,95.438,541.138,538.355,0.0
51893.0,STARLINK-3579,PAYLOAD,2024-01-02 08:07:50,15.08846905,0.0002173,53.2198,338.5641,110.8739,249.2486,4.8555e-05,4.85e-06,0.0,0 STARLINK-3579,1 51893U 22022AT  24002.33878236  .00000485  00000-0  48555-4 0  9990,2 51893  53.2198 338.5641 0002173 110.8739 249.2486 15.08846905102934,6917.859,95.437,541.228,538.221,0.0
51893.0,STARLINK-3579,PAYLOAD,2024-01-02 22:26:19,15.08840913,0.0001951,53.2174,335.8871,112.8377,247.2821,9.337e-06,-1.4e-06,0.0,0 STARLINK-3579,1 51893U 22022AT  24002.93494577 -.00000140  00000-0  93370-5 0  9993,2 51893  53.2174 335.8871 0001951 112.8377 247.2821 15.08840913103021,6917.878,95.437,541.092,538.393,0.0
51893.0,STARLINK-3579,PAYLOAD,2024-01-03 03:12:28,15.0883962,0.0001967,53.2189,334.9951,97.6511,262.4705,1.6513e-05,-2.5e-07,0.0,0 STARLINK-3579,1 51893U 22022AT  24003.13366752 -.00000025  00000-0  16513-4 0  9994,2 51893  53.2189 334.9951 0001967  97.6511 262.4705 15.08839620103059,6917.882,95.438,541.107,538.386,0.0
